0 COSMOS 2251 DEB
1 34756U 93036AAA 13283.31787273  .00000661  00000-0  60773-3 0  7055
2 34756 074.0056 146.2609 0367983 227.8992 257.8749 13.58088813230116
0 COSMOS 2251 DEB
1 34756U 93036AAA 13287.57007675  .00000947  00000-0  86172-3 0  7078
2 34756 074.0048 139.3753 0367811 220.1200 167.4610 13.58095094230693
0 COSMOS 2251 DEB
1 34756U 93036AAA 13289.28356603  .00000905  00000-0  82462-3 0  7089
2 34756 074.0047 136.6008 0367748 216.9837 264.9691 13.58099539230929
0 COSMOS 2251 DEB
1 34756U 93036AAA 13291.27225962  .00000996  00000-0  90552-3 0  7094
2 34756 074.0048 133.3805 0367673 213.3468 268.0213 13.58102999231197
0 COSMOS 2251 DEB
1 34756U 93036AAA 13292.30217863  .00001094  00000-0  99245-3 0  7100
2 34756 074.0048 131.7126 0367653 211.4671 263.4745 13.58104822231330
0 COSMOS 2251 DEB
1 34756U 93036AAA 13293.91319799  .00001201  00000-0  10874-2 0  7110
2 34756 074.0048 129.1038 0367626 208.5349 220.0339 13.58108259231552
0 COSMOS 2251 DEB
1 34756U 93036AAA 13295.52571352  .00001346  00000-0  12159-2 0  7123
2 34756 074.0047 126.4926 0367577 205.5926 183.9345 13.58112333231776
